{
  "type": "FeatureCollection",
  "features": [
    {
      "type": "Feature",
      "properties": {
        "name": "India-Sri Lanka Maritime Boundary (Bay of Bengal segment)",
        "source": "US State Dept, Limits in the Seas No. 77, 1978 - 1976 India-Sri Lanka Agreement",
        "coverage_note": "PARTIAL BOUNDARY ONLY. This covers the Bay of Bengal segment (Positions 1b-6b) from the 1976 agreement. It does NOT include the Palk Strait (1974 agreement) or Gulf of Mannar (1976 agreement) segments, where most real-world fisherman boundary incidents actually occur near Rameswaram/Katchatheevu. Treat this as a partial prototype, NOT a complete or authoritative boundary reference. Always verify against official Indian Naval Hydrographic Office charts before making real navigation decisions."
      },
      "geometry": {
        "type": "LineString",
        "coordinates": [
          [80.05, 10.0833],
          [80.0833, 10.0967],
          [80.1583, 10.14],
          [80.7667, 10.55],
          [81.0417, 10.695],
          [81.9333, 11.045],
          [82.4067, 11.2667],
          [83.3667, 11.4433]
        ]
      }
    }
  ]
}
